IRIDIUM 155             
1 43573U 18061E   20094.58773712  .00000015  00000-0 -16581-5 0  9996
2 43573  86.3916 283.4900 0001866 104.6426 255.4977 14.34217912 88624
IRIDIUM 154             
1 43574U 18061F   20094.49894548  .00000010  00000-0 -34411-5 0  9995
2 43574  86.3919 283.5534 0001977  77.8161 282.3256 14.34218238 88667
IRIDIUM 163             
1 43575U 18061G   20094.47992342  .00000034  00000-0  49089-5 0  9997
2 43575  86.3918 283.5453 0002736  87.1718 272.9791 14.34218043 88633
IRIDIUM 156             
1 43576U 18061H   20094.52433197  .00000017  00000-0 -97818-6 0  9998
2 43576  86.3916 283.5313 0002301  93.6051 266.5408 14.34217584 88630
IRIDIUM 164             
1 43577U 18061J   20094.50531088  .00000019  00000-0 -21787-6 0  9999
2 43577  86.3918 283.5453 0002113  80.3567 279.7867 14.34217150 88672
IRIDIUM 159             
1 43578U 18061K   20094.47358801  .00000018  00000-0 -49217-6 0  9993
2 43578  86.3916 283.5429 0002015  80.7805 279.3618 14.34216755 88630
IRIDIUM 180             
1 43922U 19002A   20094.40331557  .00000067  00000-0  16861-4 0  9994
2 43922  86.4016 220.4080 0002563  67.6117 292.5350 14.34217832 64277
IRIDIUM 176             
1 43923U 19002B   20093.84376445  .00000148  00000-0  19557-4 0  9992
2 43923  86.6151 220.6628 0002488  91.7999 268.3503 14.72253848 65802
IRIDIUM 168             
1 43924U 19002C   20094.39697768  .00000070  00000-0  17960-4 0  9998
2 43924  86.4017 220.4236 0002025  84.4953 275.6474 14.34216893 64210
IRIDIUM 173             
1 43925U 19002D   20094.38429644  .00000066  00000-0  16455-4 0  9997
2 43925  86.4015 220.4099 0002145  90.0479 270.0963 14.34217082 64207
IRIDIUM 169             
1 43926U 19002E   20094.54251916  .00000079  00000-0  19249-4 0  9999
2 43926  86.4211 251.9116 0003685 218.1212 141.9726 14.38609775 64495
IRIDIUM 172             
1 43927U 19002F   20094.44772618  .00000075  00000-0  19637-4 0  9993
2 43927  86.4015 220.3844 0002173  86.3885 273.7559 14.34217026 64216
IRIDIUM 175             
1 43928U 19002G   20094.44937683  .00000144  00000-0  18978-4 0  9993
2 43928  86.6133 220.3167 0002775 113.1258 247.0252 14.72255676 65882
IRIDIUM 171             
1 43929U 19002H   20094.42868961  .00000065  00000-0  16159-4 0  9995
2 43929  86.4024 220.4468 0002031  86.7236 273.4192 14.34216598 64200
IRIDIUM 170             
1 43930U 19002J   20094.39372499  .00000144  00000-0  18897-4 0  9998
2 43930  86.6151 220.4405 0002685  96.5324 263.6199 14.72256832 65899
IRIDIUM 167             
1 43931U 19002K   20094.42234671  .00000072  00000-0  18500-4 0  9993
2 43931  86.4014 220.3971 0002378  69.4012 290.7438 14.34218875 64209
